NORAD_CAT_ID,OBJECT_NAME,OBJECT_TYPE,EPOCH,MEAN_MOTION,ECCENTRICITY,INCLINATION,RA_OF_ASC_NODE,ARG_OF_PERICENTER,MEAN_ANOMALY,BSTAR,MEAN_MOTION_DOT,MEAN_MOTION_DDOT,TLE_LINE0,TLE_LINE1,TLE_LINE2,SEMIMAJOR_AXIS,PERIOD,APOGEE,PERIGEE,DECAYED
52995.0,STARLINK-4296,PAYLOAD,2023-07-10 21:23:35,15.08831016,0.0001198,53.2165,141.1797,95.4206,264.6923,3.8278e-05,3.21e-06,0.0,0 STARLINK-4296,1 52995U 22076K   23191.89137889  .00000321  00000-0  38278-4 0  9994,2 52995  53.2165 141.1797 0001198  95.4206 264.6923 15.08831016 56454,6917.908,95.438,540.602,538.944,0.0
52995.0,STARLINK-4296,PAYLOAD,2023-07-11 06:55:53,15.08837648,0.0001185,53.2165,139.3962,93.7607,266.3521,8.6617e-05,1.091e-05,0.0,0 STARLINK-4296,1 52995U 22076K   23192.28881449  .00001091  00000-0  86617-4 0  9991,2 52995  53.2165 139.3962 0001185  93.7607 266.3521 15.08837648 56516,6917.888,95.438,540.572,538.933,0.0
52995.0,STARLINK-4296,PAYLOAD,2023-07-12 13:08:13,15.08841583,0.0001114,53.2157,133.7451,121.7177,238.3924,2.3396e-05,8.5e-07,0.0,0 STARLINK-4296,1 52995U 22076K   23193.54737479  .00000085  00000-0  23396-4 0  9991,2 52995  53.2157 133.7451 0001114 121.7177 238.3924 15.08841583 56704,6917.876,95.437,540.511,538.97,0.0
52995.0,STARLINK-4296,PAYLOAD,2023-07-14 04:52:51,15.08837812,0.0001224,53.2174,126.3108,92.2818,267.8314,4.7091e-05,4.62e-06,0.0,0 STARLINK-4296,1 52995U 22076K   23195.20337636  .00000462  00000-0  47091-4 0  9994,2 52995  53.2174 126.3108 0001224  92.2818 267.8314 15.08837812 56953,6917.887,95.438,540.599,538.905,0.0
52995.0,STARLINK-4296,PAYLOAD,2023-07-15 01:32:51,15.08846227,0.0001267,53.2165,122.4439,96.1228,263.9909,9.0781e-05,1.157e-05,0.0,0 STARLINK-4296,1 52995U 22076K   23196.06448844  .00001157  00000-0  90781-4 0  9999,2 52995  53.2165 122.4439 0001267  96.1228 263.9909 15.08846227 57084,6917.861,95.437,540.603,538.85,0.0
52995.0,STARLINK-4296,PAYLOAD,2023-07-16 04:34:26,15.08830904,0.0001412,53.2169,117.3903,85.7733,274.3421,5.0421e-05,5.14e-06,0.0,0 STARLINK-4296,1 52995U 22076K   23197.19058237  .00000514  00000-0  50421-4 0  9990,2 52995  53.2169 117.3903 0001412  85.7733 274.3421 15.08830904 57253,6917.908,95.438,540.75,538.796,0.0
52995.0,STARLINK-4296,PAYLOAD,2023-07-16 22:03:40,15.08843088,0.0001395,53.2169,114.1198,86.7941,273.321,-1.8584e-05,-5.84e-06,0.0,0 STARLINK-4296,1 52995U 22076K   23197.91921978 -.00000584  00000-0 -18584-4 0  9994,2 52995  53.2169 114.1198 0001395  86.7941 273.3210 15.08843088 57360,6917.871,95.437,540.701,538.771,0.0
52995.0,STARLINK-4296,PAYLOAD,2023-07-18 02:40:36,15.08842628,0.0001344,53.2172,108.7677,81.1656,278.9489,0.00015906,2.245e-05,0.0,0 STARLINK-4296,1 52995U 22076K   23199.11153828  .00002245  00000-0  15906-3 0  9997,2 52995  53.2172 108.7677 0001344  81.1656 278.9489 15.08842628 57549,6917.872,95.437,540.667,538.808,0.0
52995.0,STARLINK-4296,PAYLOAD,2023-07-19 02:31:24,15.08837606,0.0001753,53.2159,104.3063,83.4609,276.6583,-5.4752e-05,-1.159e-05,0.0,0 STARLINK-4296,1 52995U 22076K   23200.10514402 -.00001159  00000-0 -54752-4 0  9996,2 52995  53.2159 104.3063 0001753  83.4609 276.6583 15.08837606 57698,6917.888,95.438,540.965,538.54,0.0
52995.0,STARLINK-4296,PAYLOAD,2023-07-19 18:25:16,15.0882885,0.000159,53.2171,101.3316,115.3983,244.7174,0.00010149,1.327e-05,0.0,0 STARLINK-4296,1 52995U 22076K   23200.76754881  .00001327  00000-0  10149-3 0  9991,2 52995  53.2171 101.3316 0001590 115.3983 244.7174 15.08828850 57793,6917.914,95.438,540.879,538.68,0.0
52995.0,STARLINK-4296,PAYLOAD,2023-07-21 02:12:58,15.0884398,0.0001159,53.2169,95.3856,98.3592,261.7531,0.00020591,2.991e-05,0.0,0 STARLINK-4296,1 52995U 22076K   23202.09234488  .00002991  00000-0  20591-3 0  9995,2 52995  53.2169  95.3856 0001159  98.3592 261.7531 15.08843980 57997,6917.868,95.437,540.535,538.931,0.0
52995.0,STARLINK-4296,PAYLOAD,2023-07-21 16:31:27,15.08839824,0.0001137,53.2169,92.7098,92.3229,267.7893,0.00013913,1.927e-05,0.0,0 STARLINK-4296,1 52995U 22076K   23202.68851020  .00001927  00000-0  13913-3 0  9995,2 52995  53.2169  92.7098 0001137  92.3229 267.7893 15.08839824 58083,6917.881,95.438,540.532,538.959,0.0
52995.0,STARLINK-4296,PAYLOAD,2023-07-23 22:34:34,15.08835361,0.0001569,53.2155,82.6012,66.2254,293.8902,1.4478e-05,-5.8e-07,0.0,0 STARLINK-4296,1 52995U 22076K   23204.94067593 -.00000058  00000-0  14478-4 0  9993,2 52995  53.2155  82.6012 0001569  66.2254 293.8902 15.08835361 57957,6917.895,95.438,540.845,538.674,0.0
52995.0,STARLINK-4296,PAYLOAD,2023-07-24 22:25:20,15.08846088,8.88e-05,53.2149,78.1331,99.4443,260.665,3.5158e-05,2.72e-06,0.0,0 STARLINK-4296,1 52995U 22076K   23205.93426547  .00000272  00000-0  35158-4 0  9996,2 52995  53.2149  78.1331 0000888  99.4443 260.6650 15.08846088 58103,6917.862,95.437,540.341,539.112,0.0
52995.0,STARLINK-4296,PAYLOAD,2023-07-25 22:16:08,15.08835734,0.0001115,53.2158,73.6772,90.6542,269.4578,-2.9724e-06,-3.35e-06,0.0,0 STARLINK-4296,1 52995U 22076K   23206.92787521 -.00000335  00000-0 -29724-5 0  9993,2 52995  53.2158  73.6772 0001115  90.6542 269.4578 15.08835734 58257,6917.893,95.438,540.53,538.987,0.0
52995.0,STARLINK-4296,PAYLOAD,2023-07-26 22:06:55,15.08839615,9.65e-05,53.2166,69.2188,90.158,269.9522,0.00011885,1.604e-05,0.0,0 STARLINK-4296,1 52995U 22076K   23207.92147162  .00001604  00000-0  11885-3 0  9990,2 52995  53.2166  69.2188 0000965  90.1580 269.9522 15.08839615 58400,6917.882,95.438,540.414,539.079,0.0
52995.0,STARLINK-4296,PAYLOAD,2023-07-26 23:42:18,15.08843834,0.0001061,53.2171,68.9197,81.9128,278.1984,0.00014763,2.063e-05,0.0,0 STARLINK-4296,1 52995U 22076K   23207.98770861  .00002063  00000-0  14763-3 0  9992,2 52995  53.2171  68.9197 0001061  81.9128 278.1984 15.08843834 58880,6917.869,95.437,540.468,539.0,0.0
52995.0,STARLINK-4296,PAYLOAD,2023-07-27 07:39:14,15.08834061,0.0001084,53.2169,67.4332,90.4088,269.7029,5.9507e-05,6.59e-06,0.0,0 STARLINK-4296,1 52995U 22076K   23208.31891788  .00000659  00000-0  59507-4 0  9997,2 52995  53.2169  67.4332 0001084  90.4088 269.7029 15.08834061 58931,6917.899,95.438,540.513,539.014,0.0
52995.0,STARLINK-4296,PAYLOAD,2023-07-27 23:33:06,15.08828316,0.0001123,53.2172,64.4596,86.7031,273.4089,2.0649e-05,4.1e-07,0.0,0 STARLINK-4296,1 52995U 22076K   23208.98132669  .00000041  00000-0  20649-4 0  9996,2 52995  53.2172  64.4596 0001123  86.7031 273.4089 15.08828316 59030,6917.916,95.438,540.558,539.004,0.0
52995.0,STARLINK-4296,PAYLOAD,2023-07-28 13:51:34,15.08860986,0.0001026,53.2183,61.7823,81.1878,278.9231,-0.00021226,-3.666e-05,0.0,0 STARLINK-4296,1 52995U 22076K   23209.57747964 -.00003666  00000-0 -21226-3 0  9991,2 52995  53.2183  61.7823 0001026  81.1878 278.9231 15.08860986 58650,6917.816,95.436,540.391,538.971,0.0
52995.0,STARLINK-4296,PAYLOAD,2023-07-29 20:03:55,15.08824722,0.0001012,53.2173,56.1346,77.6889,282.4216,-3.3226e-05,-8.16e-06,0.0,0 STARLINK-4296,1 52995U 22076K   23210.83605498 -.00000816  00000-0 -33226-4 0  9995,2 52995  53.2173  56.1346 0001012  77.6889 282.4216 15.08824722 59319,6917.927,95.439,540.492,539.092,0.0
52995.0,STARLINK-4296,PAYLOAD,2023-07-29 23:14:41,15.08817763,0.000105,53.217,55.5398,83.4617,276.6495,-9.0941e-05,-1.734e-05,0.0,0 STARLINK-4296,1 52995U 22076K   23210.96854164 -.00001734  00000-0 -90941-4 0  9992,2 52995  53.2170  55.5398 0001050  83.4617 276.6495 15.08817763 59335,6917.948,95.439,540.54,539.087,0.0
52995.0,STARLINK-4296,PAYLOAD,2023-07-30 18:19:18,15.08839284,0.0001395,53.2184,51.9703,99.2596,260.8553,4.816e-05,4.79e-06,0.0,0 STARLINK-4296,1 52995U 22076K   23211.76341112  .00000479  00000-0  48160-4 0  9994,2 52995  53.2184  51.9703 0001395  99.2596 260.8553 15.08839284 59458,6917.883,95.438,540.713,538.783,0.0
52995.0,STARLINK-4296,PAYLOAD,2023-07-30 21:30:04,15.08846062,0.0001125,53.2169,51.3754,84.4762,275.6358,0.00020319,2.948e-05,0.0,0 STARLINK-4296,1 52995U 22076K   23211.89588630  .00002948  00000-0  20319-3 0  9994,2 52995  53.2169  51.3754 0001125  84.4762 275.6358 15.08846062 59474,6917.862,95.437,540.505,538.949,0.0
52995.0,STARLINK-4296,PAYLOAD,2023-07-31 21:20:51,15.08874556,0.0001238,53.2167,46.9148,79.1571,280.956,0.00094796,0.00014845,0.0,0 STARLINK-4296,1 52995U 22076K   23212.88948132  .00014845  00000-0  94796-3 0  9990,2 52995  53.2167  46.9148 0001238  79.1571 280.9560 15.08874556 59623,6917.775,95.435,540.496,538.783,0.0
52995.0,STARLINK-4296,PAYLOAD,2023-08-01 18:00:51,15.08855151,0.0001149,53.2162,43.047,98.5074,261.6048,0.00017355,2.476e-05,0.0,0 STARLINK-4296,1 52995U 22076K   23213.75059734  .00002476  00000-0  17355-3 0  9991,2 52995  53.2162  43.0470 0001149  98.5074 261.6048 15.08855151 59759,6917.834,95.437,540.494,538.904,0.0
52995.0,STARLINK-4296,PAYLOAD,2023-08-02 05:08:33,15.08849631,0.0001064,53.2162,40.9655,94.5651,265.5462,0.00010202,1.337e-05,0.0,0 STARLINK-4296,1 52995U 22076K   23214.21427598  .00001337  00000-0  10202-3 0  9999,2 52995  53.2162  40.9655 0001064  94.5651 265.5462 15.08849631 59820,6917.851,95.437,540.452,538.98,0.0
52995.0,STARLINK-4296,PAYLOAD,2023-08-02 19:27:01,15.08845703,0.000113,53.2166,38.29,87.8867,272.2254,-2.8932e-05,-7.48e-06,0.0,0 STARLINK-4296,1 52995U 22076K   23214.81043689 -.00000748  00000-0 -28932-4 0  9997,2 52995  53.2166  38.2900 0001130  87.8867 272.2254 15.08845703 59915,6917.863,95.437,540.51,538.946,0.0
52995.0,STARLINK-4296,PAYLOAD,2023-08-04 09:36:17,15.0883814,0.000113,53.2174,31.1557,87.031,273.0811,5.0534e-05,5.16e-06,0.0,0 STARLINK-4296,1 52995U 22076K   23216.40020115  .00000516  00000-0  50534-4 0  9997,2 52995  53.2174  31.1557 0001130  87.0310 273.0811 15.08838140 60152,6917.886,95.438,540.533,538.969,0.0
52995.0,STARLINK-4296,PAYLOAD,2023-08-05 11:02:27,15.08840926,0.0001297,53.2171,26.3982,81.1738,278.9401,-1.2577e-05,-4.88e-06,0.0,0 STARLINK-4296,1 52995U 22076K   23217.46004293 -.00000488  00000-0 -12577-4 0  9998,2 52995  53.2171  26.3982 0001297  81.1738 278.9401 15.08840926 60312,6917.878,95.437,540.64,538.845,0.0
